NORAD_CAT_ID,OBJECT_NAME,OBJECT_TYPE,EPOCH,MEAN_MOTION,ECCENTRICITY,INCLINATION,RA_OF_ASC_NODE,ARG_OF_PERICENTER,MEAN_ANOMALY,BSTAR,MEAN_MOTION_DOT,MEAN_MOTION_DDOT,TLE_LINE0,TLE_LINE1,TLE_LINE2,SEMIMAJOR_AXIS,PERIOD,APOGEE,PERIGEE,DECAYED
52307.0,STARLINK-3755,PAYLOAD,2024-03-20 06:52:58,15.08845554,0.000177,53.2174,88.6463,78.0361,282.083,7.8945e-05,9.69e-06,0.0,0 STARLINK-3755,1 52307U 22041AY  24080.28678606  .00000969  00000-0  78945-4 0  9994,2 52307  53.2174  88.6463 0001770  78.0361 282.0830 15.08845554105909,6917.863,95.437,540.953,538.504,0.0
52307.0,STARLINK-3755,PAYLOAD,2024-03-21 05:08:22,15.08840136,0.0001633,53.2172,84.4827,86.8421,273.2758,4.5169e-06,-2.16e-06,0.0,0 STARLINK-3755,1 52307U 22041AY  24081.21414970 -.00000216  00000-0  45169-5 0  9999,2 52307  53.2172  84.4827 0001633  86.8421 273.2758 15.08840136107259,6917.88,95.438,540.875,538.615,0.0
52307.0,STARLINK-3755,PAYLOAD,2024-03-21 09:54:31,15.08845995,0.0001623,53.2166,83.5887,98.5927,261.525,5.1873e-06,-2.05e-06,0.0,0 STARLINK-3755,1 52307U 22041AY  24081.41286439 -.00000205  00000-0  51873-5 0  9995,2 52307  53.2166  83.5887 0001623  98.5927 261.5250 15.08845995106072,6917.862,95.437,540.85,538.604,0.0
52307.0,STARLINK-3755,PAYLOAD,2024-03-22 04:59:09,15.08846805,0.0001562,53.2161,80.019,92.826,267.2911,5.7434e-05,6.26e-06,0.0,0 STARLINK-3755,1 52307U 22041AY  24082.20774372  .00000626  00000-0  57434-4 0  9995,2 52307  53.2161  80.0190 0001562  92.8260 267.2911 15.08846805106196,6917.86,95.437,540.805,538.644,0.0
52307.0,STARLINK-3755,PAYLOAD,2024-03-23 04:49:57,15.08832553,0.0001445,53.2186,75.5648,99.1822,260.9333,1.5036e-05,-4.9e-07,0.0,0 STARLINK-3755,1 52307U 22041AY  24083.20135926 -.00000049  00000-0  15036-4 0  9994,2 52307  53.2186  75.5648 0001445  99.1822 260.9333 15.08832553107558,6917.903,95.438,540.768,538.769,0.0
52307.0,STARLINK-3755,PAYLOAD,2024-03-23 22:19:12,15.08816937,0.0001394,53.2184,72.2926,100.828,259.2869,0.00046969,7.19e-05,0.0,0 STARLINK-3755,1 52307U 22041AY  24083.93000174  .00007190  00000-0  46969-3 0  9991,2 52307  53.2184  72.2926 0001394 100.8280 259.2869 15.08816937106451,6917.951,95.439,540.78,538.852,0.0
52307.0,STARLINK-3755,PAYLOAD,2024-03-24 04:40:42,15.08856176,0.0001562,53.2184,71.0999,94.7422,265.3748,0.00017058,2.429e-05,0.0,0 STARLINK-3755,1 52307U 22041AY  24084.19494093  .00002429  00000-0  17058-3 0  9994,2 52307  53.2184  71.0999 0001562  94.7422 265.3748 15.08856176107706,6917.831,95.437,540.777,538.615,0.0
52307.0,STARLINK-3755,PAYLOAD,2024-03-24 06:16:05,15.08853674,0.0001738,53.2184,70.8041,101.3227,258.796,0.00026201,3.886e-05,0.0,0 STARLINK-3755,1 52307U 22041AY  24084.26118020  .00003886  00000-0  26201-3 0  9993,2 52307  53.2184  70.8041 0001738 101.3227 258.7960 15.08853674106503,6917.839,95.437,540.906,538.501,0.0
52307.0,STARLINK-3755,PAYLOAD,2024-03-24 22:09:58,15.08843912,0.0001406,53.2179,67.8324,104.2857,255.8292,0.00016434,2.329e-05,0.0,0 STARLINK-3755,1 52307U 22041AY  24084.92359281  .00002329  00000-0  16434-3 0  9990,2 52307  53.2179  67.8324 0001406 104.2857 255.8292 15.08843912106601,6917.868,95.437,540.706,538.761,0.0
52307.0,STARLINK-3755,PAYLOAD,2024-03-25 04:31:31,15.08833243,0.0001404,53.2173,66.638,79.0839,281.0311,-1.9161e-05,-5.93e-06,0.0,0 STARLINK-3755,1 52307U 22041AY  24085.18855904 -.00000593  00000-0 -19161-4 0  9996,2 52307  53.2173  66.6380 0001404  79.0839 281.0311 15.08833243107858,6917.901,95.438,540.737,538.795,0.0
52307.0,STARLINK-3755,PAYLOAD,2024-03-25 15:39:13,15.08828934,0.0001567,53.2183,64.5547,85.4018,274.7154,-8.7515e-05,-1.68e-05,0.0,0 STARLINK-3755,1 52307U 22041AY  24085.65224400 -.00001680  00000-0 -87515-4 0  9995,2 52307  53.2183  64.5547 0001567  85.4018 274.7154 15.08828934106710,6917.914,95.438,540.863,538.695,0.0
52307.0,STARLINK-3755,PAYLOAD,2024-03-26 07:33:05,15.08841229,0.0001405,53.2181,61.5829,82.7505,277.3647,-0.00010261,-1.921e-05,0.0,0 STARLINK-3755,1 52307U 22041AY  24086.31464629 -.00001921  00000-0 -10261-3 0  9999,2 52307  53.2181  61.5829 0001405  82.7505 277.3647 15.08841229108024,6917.877,95.437,540.714,538.77,0.0
52307.0,STARLINK-3755,PAYLOAD,2024-03-26 15:30:00,15.08849009,0.0001459,53.2186,60.0964,85.1454,274.9704,-7.181e-05,-1.431e-05,0.0,0 STARLINK-3755,1 52307U 22041AY  24086.64583973 -.00001431  00000-0 -71810-4 0  9993,2 52307  53.2186  60.0964 0001459  85.1454 274.9704 15.08849009108078,6917.853,95.437,540.727,538.709,0.0
52307.0,STARLINK-3755,PAYLOAD,2024-03-27 05:48:28,15.0885044,0.000121,53.2174,57.4173,92.6845,267.4286,0.00034677,5.237e-05,0.0,0 STARLINK-3755,1 52307U 22041AY  24087.24199977  .00005237  00000-0  34677-3 0  9992,2 52307  53.2174  57.4173 0001210  92.6845 267.4286 15.08850440106957,6917.848,95.437,540.551,538.876,0.0
52307.0,STARLINK-3755,PAYLOAD,2024-03-27 15:20:47,15.08846622,0.0001338,53.2174,55.6334,98.3202,261.7942,0.00021866,3.194e-05,0.0,0 STARLINK-3755,1 52307U 22041AY  24087.63944089  .00003194  00000-0  21866-3 0  9993,2 52307  53.2174  55.6334 0001338  98.3202 261.7942 15.08846622107018,6917.86,95.437,540.651,538.8,0.0
52307.0,STARLINK-3755,PAYLOAD,2024-03-28 04:03:53,15.08838551,0.0001504,53.2207,53.2557,95.522,264.5944,0.00016402,2.323e-05,0.0,0 STARLINK-3755,1 52307U 22041AY  24088.16936529  .00002323  00000-0  16402-3 0  9995,2 52307  53.2207  53.2557 0001504  95.5220 264.5944 15.08838551108308,6917.885,95.438,540.79,538.709,0.0
52307.0,STARLINK-3755,PAYLOAD,2024-03-29 03:54:39,15.08847791,0.0001462,53.2183,48.7941,103.123,256.9925,-7.1665e-05,-1.429e-05,0.0,0 STARLINK-3755,1 52307U 22041AY  24089.16296281 -.00001429  00000-0 -71665-4 0  9991,2 52307  53.2183  48.7941 0001462 103.1230 256.9925 15.08847791107249,6917.857,95.437,540.733,538.71,0.0
52307.0,STARLINK-3755,PAYLOAD,2024-03-29 21:23:54,15.08842701,0.00016,53.2177,45.5229,106.8849,253.2319,3.2275e-05,2.26e-06,0.0,0 STARLINK-3755,1 52307U 22041AY  24089.89160166  .00000226  00000-0  32275-4 0  9999,2 52307  53.2177  45.5229 0001600 106.8849 253.2319 15.08842701108565,6917.872,95.437,540.844,538.63,0.0
52307.0,STARLINK-3755,PAYLOAD,2024-03-30 03:45:26,15.08848849,0.0001526,53.2174,44.3365,97.1121,263.0045,0.00010035,1.31e-05,0.0,0 STARLINK-3755,1 52307U 22041AY  24090.15655625  .00001310  00000-0  10035-3 0  9993,2 52307  53.2174  44.3365 0001526  97.1121 263.0045 15.08848849108601,6917.853,95.437,540.774,538.663,0.0
52307.0,STARLINK-3755,PAYLOAD,2024-03-30 13:17:45,15.08843801,0.000155,53.2181,42.5529,97.1367,262.9801,1.1125e-05,-1.11e-06,0.0,0 STARLINK-3755,1 52307U 22041AY  24090.55400017 -.00000111  00000-0  11125-4 0  9991,2 52307  53.2181  42.5529 0001550  97.1367 262.9801 15.08843801107453,6917.869,95.437,540.806,538.662,0.0
52307.0,STARLINK-3755,PAYLOAD,2024-03-30 21:14:41,15.08836676,0.000177,53.2201,41.0721,107.2628,252.8558,4.4648e-05,4.22e-06,0.0,0 STARLINK-3755,1 52307U 22041AY  24090.88520691  .00000422  00000-0  44648-4 0  9998,2 52307  53.2201  41.0721 0001770 107.2628 252.8558 15.08836676108710,6917.891,95.438,540.98,538.531,0.0
52307.0,STARLINK-3755,PAYLOAD,2024-03-31 13:08:33,15.08838723,0.0001598,53.2202,38.0971,103.8956,256.2214,4.8756e-05,4.88e-06,0.0,0 STARLINK-3755,1 52307U 22041AY  24091.54760556  .00000488  00000-0  48756-4 0  9994,2 52307  53.2202  38.0971 0001598 103.8956 256.2214 15.08838723107607,6917.884,95.438,540.855,538.644,0.0
52307.0,STARLINK-3755,PAYLOAD,2024-04-01 03:27:00,15.08853213,0.0001185,53.2181,35.4157,89.9716,270.1412,9.9636e-05,1.299e-05,0.0,0 STARLINK-3755,1 52307U 22041AY  24092.14375297  .00001299  00000-0  99636-4 0  9999,2 52307  53.2181  35.4157 0001185  89.9716 270.1412 15.08853213108900,6917.84,95.437,540.525,538.885,0.0
52307.0,STARLINK-3755,PAYLOAD,2024-04-01 12:59:19,15.08851744,0.0001229,53.2189,33.633,89.2617,270.8516,3.4194e-05,2.57e-06,0.0,0 STARLINK-3755,1 52307U 22041AY  24092.54119306  .00000257  00000-0  34194-4 0  9991,2 52307  53.2189  33.6330 0001229  89.2617 270.8516 15.08851744107754,6917.844,95.437,540.56,538.859,0.0
52307.0,STARLINK-3755,PAYLOAD,2024-04-02 04:53:12,15.08831493,0.000135,53.2193,30.6595,83.196,276.9186,1.0335e-05,-1.23e-06,0.0,0 STARLINK-3755,1 52307U 22041AY  24093.20361206 -.00000123  00000-0  10335-4 0  9997,2 52307  53.2193  30.6595 0001350  83.1960 276.9186 15.08831493109063,6917.906,95.438,540.705,538.837,0.0
52307.0,STARLINK-3755,PAYLOAD,2024-04-02 12:50:07,15.08833071,0.0001371,53.2198,29.1735,87.9701,272.1448,-4.9542e-06,-3.67e-06,0.0,0 STARLINK-3755,1 52307U 22041AY  24093.53481268 -.00000367  00000-0 -49542-5 0  9998,2 52307  53.2198  29.1735 0001371  87.9701 272.1448 15.08833071107909,6917.902,95.438,540.715,538.818,0.0
52307.0,STARLINK-3755,PAYLOAD,2024-04-03 04:43:58,15.08845524,0.000144,53.2198,26.1999,92.0819,268.0338,-1.2064e-05,-4.8e-06,0.0,0 STARLINK-3755,1 52307U 22041AY  24094.19720701 -.00000480  00000-0 -12064-4 0  9993,2 52307  53.2198  26.1999 0001440  92.0819 268.0338 15.08845524109216,6917.864,95.437,540.725,538.732,0.0
52307.0,STARLINK-3755,PAYLOAD,2024-04-03 12:40:54,15.08840365,0.0001302,53.2191,24.7126,87.2243,272.8899,3.5438e-05,2.76e-06,0.0,0 STARLINK-3755,1 52307U 22041AY  24094.52840927  .00000276  00000-0  35438-4 0  9994,2 52307  53.2191  24.7126 0001302  87.2243 272.8899 15.08840365108053,6917.879,95.438,540.645,538.844,0.0
52307.0,STARLINK-3755,PAYLOAD,2024-04-04 12:31:41,15.08842571,0.0001423,53.219,20.2513,82.1954,277.92,0.00015349,2.156e-05,0.0,0 STARLINK-3755,1 52307U 22041AY  24095.52200764  .00002156  00000-0  15349-3 0  9991,2 52307  53.2190  20.2513 0001423  82.1954 277.9200 15.08842571109414,6917.873,95.437,540.722,538.753,0.0
52307.0,STARLINK-3755,PAYLOAD,2024-04-05 04:25:31,15.08856661,0.0001614,53.2202,17.2751,94.1896,265.9281,0.00018821,2.71e-05,0.0,0 STARLINK-3755,1 52307U 22041AY  24096.18439565  .00002710  00000-0  18821-3 0  9991,2 52307  53.2202  17.2751 0001614  94.1896 265.9281 15.08856661109510,6917.829,95.437,540.811,538.578,0.0
